{"type": "FeatureCollection", "features": [ {"type": "Feature", "properties": {"norad_id": 40664, "name": "SKY MEXICO-1", "group": "intelsat", "lat": -0.031183468335904525, "lon": -46.44985584697677, "alt_km": 35777.40049016581, "timestamp": "2025-12-10T20:49:52.228738+00:00", "meta": {"OBJECT_NAME": "SKY MEXICO-1", "OBJECT_ID": "2015-026B", "EPOCH": "2025-12-10T04:15:38.659392", "MEAN_MOTION": 1.00270655, "ECCENTRICITY": 0.00027262, "INCLINATION": 0.029, "RA_OF_ASC_NODE": 67.5493, "ARG_OF_PERICENTER": 207.8932, "MEAN_ANOMALY": 148.8575, "EPHEMERIS_TYPE": 0, "CLASSIFICATION_TYPE": "U", "NORAD_CAT_ID": 40664, "ELEMENT_SET_NO": 999, "REV_AT_EPOCH": 3855, "BSTAR": 0, "MEAN_MOTION_DOT": -2.31e-06, "MEAN_MOTION_DDOT": 0}, "tle": {"line1": "1 40664U 15026B   25344.17753078 -.00000231  00000+0  00000+0 0  9995", "line2": "2 40664   0.0290  67.5493 0002726 207.8932 148.8575  1.00270655 38550"}}, "geometry": {"type": "Point", "coordinates": [-46.44985584697677, -0.031183468335904525]}}, {"type": "Feature", "properties": {"norad_id": 40874, "name": "INTELSAT 34 (IS-34)", "group": "intelsat", "lat": 0.00653595146232225, "lon": -23.198622060390225, "alt_km": 35788.95382518164, "timestamp": "2025-12-10T20:49:52.228750+00:00", "meta": {"OBJECT_NAME": "INTELSAT 34 (IS-34)", "OBJECT_ID": "2015-039A", "EPOCH": "2025-12-10T03:59:38.770944", "MEAN_MOTION": 1.00269978, "ECCENTRICITY": 5.547e-05, "INCLINATION": 0.0112, "RA_OF_ASC_NODE": 310.175, "ARG_OF_PERICENTER": 217.3462, "MEAN_ANOMALY": 276.0397, "EPHEMERIS_TYPE": 0, "CLASSIFICATION_TYPE": "U", "NORAD_CAT_ID": 40874, "ELEMENT_SET_NO": 999, "REV_AT_EPOCH": 3773, "BSTAR": 0, "MEAN_MOTION_DOT": -2.82e-06, "MEAN_MOTION_DDOT": 0}, "tle": {"line1": "1 40874U 15039A   25344.16642096 -.00000282  00000+0  00000+0 0  9994", "line2": "2 40874   0.0112 310.1750 0000554 217.3462 276.0397  1.00269978 37731"}}, "geometry": {"type": "Point", "coordinates": [-23.198622060390225, 0.00653595146232225]}}, {"type": "Feature", "properties": {"norad_id": 41581, "name": "INTELSAT 31 (IS-31)", "group": "intelsat", "lat": -0.002715325974613601, "lon": -62.74265515598546, "alt_km": 35784.067730199095, "timestamp": "2025-12-10T20:49:52.228761+00:00", "meta": {"OBJECT_NAME": "INTELSAT 31 (IS-31)", "OBJECT_ID": "2016-035A", "EPOCH": "2025-12-10T01:11:38.648832", "MEAN_MOTION": 1.00271715, "ECCENTRICITY": 0.00019309, "INCLINATION": 0.0151, "RA_OF_ASC_NODE": 272.9636, "ARG_OF_PERICENTER": 308.7299, "MEAN_ANOMALY": 140.183, "EPHEMERIS_TYPE": 0, "CLASSIFICATION_TYPE": "U", "NORAD_CAT_ID": 41581, "ELEMENT_SET_NO": 999, "REV_AT_EPOCH": 3478, "BSTAR": 0, "MEAN_MOTION_DOT": -1.48e-06, "MEAN_MOTION_DDOT": 0}, "tle": {"line1": "1 41581U 16035A   25344.04975288 -.00000148  00000+0  00000+0 0  9997", "line2": "2 41581   0.0151 272.9636 0001930 308.7299 140.1830  1.00271715 34787"}}, "geometry": {"type": "Point", "coordinates": [-62.74265515598546, -0.002715325974613601]}}, {"type": "Feature", "properties": {"norad_id": 41747, "name": "INTELSAT 36 (IS-36)", "group": "intelsat", "lat": 0.029083529448237104, "lon": 100.79776963102498, "alt_km": 35791.19309708098, "timestamp": "2025-12-10T20:49:52.228773+00:00", "meta": {"OBJECT_NAME": "INTELSAT 36 (IS-36)", "OBJECT_ID": "2016-053A", "EPOCH": "2025-12-10T13:41:17.219616", "MEAN_MOTION": 1.0027016, "ECCENTRICITY": 0.0001428, "INCLINATION": 0.0132, "RA_OF_ASC_NODE": 9.5516, "ARG_OF_PERICENTER": 310.4623, "MEAN_ANOMALY": 33.3395, "EPHEMERIS_TYPE": 0, "CLASSIFICATION_TYPE": "U", "NORAD_CAT_ID": 41747, "ELEMENT_SET_NO": 999, "REV_AT_EPOCH": 3405, "BSTAR": 0, "MEAN_MOTION_DOT": -2e-07, "MEAN_MOTION_DDOT": 0}, "tle": {"line1": "1 41747U 16053A   25344.57033819 -.00000020  00000+0  00000+0 0  9993", "line2": "2 41747   0.0132   9.5516 0001428 310.4623  33.3395  1.00270160 34056"}}, "geometry": {"type": "Point", "coordinates": [100.79776963102498, 0.029083529448237104]}}, {"type": "Feature", "properties": {"norad_id": 41945, "name": "INTELSAT 32E (IS-32E)", "group": "intelsat", "lat": -0.024750650341508973, "lon": -10.884590704926081, "alt_km": 35784.90365850921, "timestamp": "2025-12-10T20:49:52.228784+00:00", "meta": {"OBJECT_NAME": "INTELSAT 32E (IS-32E)", "OBJECT_ID": "2017-007B", "EPOCH": "2025-12-10T03:03:53.342208", "MEAN_MOTION": 1.00269421, "ECCENTRICITY": 4.637e-05, "INCLINATION": 0.0308, "RA_OF_ASC_NODE": 74.2272, "ARG_OF_PERICENTER": 283.5748, "MEAN_ANOMALY": 84.0991, "EPHEMERIS_TYPE": 0, "CLASSIFICATION_TYPE": "U", "NORAD_CAT_ID": 41945, "ELEMENT_SET_NO": 999, "REV_AT_EPOCH": 3232, "BSTAR": 0, "MEAN_MOTION_DOT": -2.66e-06, "MEAN_MOTION_DDOT": 0}, "tle": {"line1": "1 41945U 17007B   25344.12770072 -.00000266  00000+0  00000+0 0  9995", "line2": "2 41945   0.0308  74.2272 0000463 283.5748  84.0991  1.00269421 32326"}}, "geometry": {"type": "Point", "coordinates": [-10.884590704926081, -0.024750650341508973]}}, {"type": "Feature", "properties": {"norad_id": 42818, "name": "INTELSAT 35E (IS-35E)", "group": "intelsat", "lat": 0.011559800043372887, "lon": -2.1855113062458678, "alt_km": 35786.9827587857, "timestamp": "2025-12-10T20:49:52.228796+00:00", "meta": {"OBJECT_NAME": "INTELSAT 35E (IS-35E)", "OBJECT_ID": "2017-041A", "EPOCH": "2025-12-10T03:06:23.102784", "MEAN_MOTION": 1.00269308, "ECCENTRICITY": 0.00022638, "INCLINATION": 0.0177, "RA_OF_ASC_NODE": 338.821, "ARG_OF_PERICENTER": 288.1751, "MEAN_ANOMALY": 184.2033, "EPHEMERIS_TYPE": 0, "CLASSIFICATION_TYPE": "U", "NORAD_CAT_ID": 42818, "ELEMENT_SET_NO": 999, "REV_AT_EPOCH": 3092, "BSTAR": 0, "MEAN_MOTION_DOT": -2.35e-06, "MEAN_MOTION_DDOT": 0}, "tle": {"line1": "1 42818U 17041A   25344.12943406 -.00000235  00000+0  00000+0 0  9992", "line2": "2 42818   0.0177 338.8210 0002263 288.1751 184.2033  1.00269308 30924"}}, "geometry": {"type": "Point", "coordinates": [-2.1855113062458678, 0.011559800043372887]}}, {"type": "Feature", "properties": {"norad_id": 42950, "name": "INTELSAT 37E (IS-37E)", "group": "intelsat", "lat": 0.0034910853576588506, "lon": 14.330381767582502, "alt_km": 35793.35854862117, "timestamp": "2025-12-10T20:49:52.228807+00:00", "meta": {"OBJECT_NAME": "INTELSAT 37E (IS-37E)", "OBJECT_ID": "2017-059A", "EPOCH": "2025-12-10T06:37:38.586720", "MEAN_MOTION": 1.00270776, "ECCENTRICITY": 0.00033345, "INCLINATION": 0.0135, "RA_OF_ASC_NODE": 25.5168, "ARG_OF_PERICENTER": 229.1399, "MEAN_ANOMALY": 266.0057, "EPHEMERIS_TYPE": 0, "CLASSIFICATION_TYPE": "U", "NORAD_CAT_ID": 42950, "ELEMENT_SET_NO": 999, "REV_AT_EPOCH": 3017, "BSTAR": 0, "MEAN_MOTION_DOT": -1.37e-06, "MEAN_MOTION_DDOT": 0}, "tle": {"line1": "1 42950U 17059A   25344.27614105 -.00000137  00000+0  00000+0 0  9996", "line2": "2 42950   0.0135  25.5168 0003334 229.1399 266.0057  1.00270776 30173"}}, "geometry": {"type": "Point", "coordinates": [14.330381767582502, 0.0034910853576588506]}}, {"type": "Feature", "properties": {"norad_id": 43632, "name": "AZERSPACE 2 (IS-38)", "group": "intelsat", "lat": 0.03472483424183718, "lon": 77.40800138641994, "alt_km": 35792.662253995695, "timestamp": "2025-12-10T20:49:52.228819+00:00", "meta": {"OBJECT_NAME": "AZERSPACE 2 (IS-38)", "OBJECT_ID": "2018-074A", "EPOCH": "2025-12-10T02:36:38.720736", "MEAN_MOTION": 1.00270845, "ECCENTRICITY": 0.0001522, "INCLINATION": 0.0163, "RA_OF_ASC_NODE": 347.1733, "ARG_OF_PERICENTER": 275.6759, "MEAN_ANOMALY": 260.508, "EPHEMERIS_TYPE": 0, "CLASSIFICATION_TYPE": "U", "NORAD_CAT_ID": 43632, "ELEMENT_SET_NO": 999, "REV_AT_EPOCH": 2655, "BSTAR": 0, "MEAN_MOTION_DOT": 1.4e-06, "MEAN_MOTION_DDOT": 0}, "tle": {"line1": "1 43632U 18074A   25344.10878149  .00000140  00000+0  00000+0 0  9997", "line2": "2 43632   0.0163 347.1733 0001522 275.6759 260.5080  1.00270845 26555"}}, "geometry": {"type": "Point", "coordinates": [77.40800138641994, 0.03472483424183718]}}, {"type": "Feature", "properties": {"norad_id": 43633, "name": "HORIZONS-3E", "group": "intelsat", "lat": -0.007374861930645245, "lon": -158.71347595362454, "alt_km": 35787.75561789944, "timestamp": "2025-12-10T20:49:52.228831+00:00", "meta": {"OBJECT_NAME": "HORIZONS-3E", "OBJECT_ID": "2018-074B", "EPOCH": "2025-12-10T14:21:58.074048", "MEAN_MOTION": 1.00266688, "ECCENTRICITY": 0.00013069, "INCLINATION": 0.0425, "RA_OF_ASC_NODE": 176.7066, "ARG_OF_PERICENTER": 117.3896, "MEAN_ANOMALY": 169.9725, "EPHEMERIS_TYPE": 0, "CLASSIFICATION_TYPE": "U", "NORAD_CAT_ID": 43633, "ELEMENT_SET_NO": 999, "REV_AT_EPOCH": 2645, "BSTAR": 0, "MEAN_MOTION_DOT": -2.7e-07, "MEAN_MOTION_DDOT": 0}, "tle": {"line1": "1 43633U 18074B   25344.59858882 -.00000027  00000+0  00000+0 0  9998", "line2": "2 43633   0.0425 176.7066 0001306 117.3896 169.9725  1.00266688 26453"}}, "geometry": {"type": "Point", "coordinates": [-158.71347595362454, -0.007374861930645245]}}, {"type": "Feature", "properties": {"norad_id": 44333, "name": "AT&T T-16", "group": "intelsat", "lat": -0.027618393297563396, "lon": -68.56864012581123, "alt_km": 35788.7240178646, "timestamp": "2025-12-10T20:49:52.228842+00:00", "meta": {"OBJECT_NAME": "AT&T T-16", "OBJECT_ID": "2019-034A", "EPOCH": "2025-12-10T08:50:38.677344", "MEAN_MOTION": 1.00268562, "ECCENTRICITY": 5.257e-05, "INCLINATION": 0.0278, "RA_OF_ASC_NODE": 70.8283, "ARG_OF_PERICENTER": 79.3328, "MEAN_ANOMALY": 320.9769, "EPHEMERIS_TYPE": 0, "CLASSIFICATION_TYPE": "U", "NORAD_CAT_ID": 44333, "ELEMENT_SET_NO": 999, "REV_AT_EPOCH": 2374, "BSTAR": 0, "MEAN_MOTION_DOT": -1.11e-06, "MEAN_MOTION_DDOT": 0}, "tle": {"line1": "1 44333U 19034A   25344.36850321 -.00000111  00000+0  00000+0 0  9992", "line2": "2 44333   0.0278  70.8283 0000525  79.3328 320.9769  1.00268562 23740"}}, "geometry": {"type": "Point", "coordinates": [-68.56864012581123, -0.027618393297563396]}}]}